$$SOE
2460721.500000000, A.D. 2025-Feb-15 00:00:00.0000, 1.759222769252872E+08, -3.822140919630529E+08, -3.065161071530548E+07,
2460728.500000000, A.D. 2025-Feb-22 00:00:00.0000, 1.845511501322822E+08, -3.769250931467830E+08, -2.926498085389537E+07,
2460735.500000000, A.D. 2025-Mar-01 00:00:00.0000, 1.930596986891887E+08, -3.713904189602122E+08, -2.785927219642313E+07,
2460742.500000000, A.D. 2025-Mar-08 00:00:00.0000, 2.014412942000727E+08, -3.656115922452242E+08, -2.643524517703767E+07,
2460749.500000000, A.D. 2025-Mar-15 00:00:00.0000, 2.096892579096850E+08, -3.595902855070564E+08, -2.499368290556872E+07,
2460756.500000000, A.D. 2025-Mar-22 00:00:00.0000, 2.177968595324980E+08, -3.533283260050653E+08, -2.353539149393640E+07,
2460763.500000000, A.D. 2025-Mar-29 00:00:00.0000, 2.257573177011717E+08, -3.468277033101454E+08, -2.206120069503118E+07,
2460770.500000000, A.D. 2025-Apr-05 00:00:00.0000, 2.335638023809144E+08, -3.400905761892771E+08, -2.057196462594217E+07,
2460777.500000000, A.D. 2025-Apr-12 00:00:00.0000, 2.412094373457796E+08, -3.331192787119878E+08, -1.906856238866101E+07,
2460784.500000000, A.D. 2025-Apr-19 00:00:00.0000, 2.486873025523499E+08, -3.259163264572587E+08, -1.755189864109939E+07,
2460791.500000000, A.D. 2025-Apr-26 00:00:00.0000, 2.559904367062894E+08, -3.184844230195202E+08, -1.602290415762635E+07,
2460798.500000000, A.D. 2025-May-03 00:00:00.0000, 2.631118401604925E+08, -3.108264667888264E+08, -1.448253638536541E+07,
2460805.500000000, A.D. 2025-May-10 00:00:00.0000, 2.700444781994032E+08, -3.029455579892959E+08, -1.293177999521306E+07,
2460812.500000000, A.D. 2025-May-17 00:00:00.0000, 2.767812847730461E+08, -2.948450060073999E+08, -1.137164743103443E+07,
2460819.500000000, A.D. 2025-May-24 00:00:00.0000, 2.833151668831385E+08, -2.865283370525902E+08, -9.803179473837927E+06,
2460826.500000000, A.D. 2025-May-31 00:00:00.0000, 2.896390100701361E+08, -2.779993018261771E+08, -8.227445829732612E+06,
2460833.500000000, A.D. 2025-Jun-07 00:00:00.0000, 2.957456846325127E+08, -2.692618819809329E+08, -6.645545601666570E+06,
2460840.500000000, A.D. 2025-Jun-14 00:00:00.0000, 3.016280502435459E+08, -2.603202960235595E+08, -5.058607477307588E+06,
2460847.500000000, A.D. 2025-Jun-21 00:00:00.0000, 3.072789602091777E+08, -2.511790079096815E+08, -3.467790006627649E+06,
2460854.500000000, A.D. 2025-Jun-28 00:00:00.0000, 3.126912685235578E+08, -2.418427365380874E+08, -1.874282106439620E+06,
2460861.500000000, A.D. 2025-Jul-05 00:00:00.0000, 3.178578382383966E+08, -2.323164639560389E+08, -2.793034708014578E+05,
2460868.500000000, A.D. 2025-Jul-12 00:00:00.0000, 3.227715499914792E+08, -2.226054430475422E+08, 1.315895162351444E+06,
2460875.500000000, A.D. 2025-Jul-19 00:00:00.0000, 3.274253109220961E+08, -2.127152052450913E+08, 2.910031830931351E+06,
2460882.500000000, A.D. 2025-Jul-26 00:00:00.0000, 3.318120642209082E+08, -2.026515682853892E+08, 4.501793238767430E+06,
2460889.500000000, A.D. 2025-Aug-02 00:00:00.0000, 3.359247994147038E+08, -1.924206439479407E+08, 6.089834720421351E+06,
2460896.500000000, A.D. 2025-Aug-09 00:00:00.0000, 3.397565634413937E+08, -1.820288457465226E+08, 7.672780286561199E+06,
2460903.500000000, A.D. 2025-Aug-16 00:00:00.0000, 3.433004726205084E+08, -1.714828965859016E+08, 9.249222747073881E+06,
2460910.500000000, A.D. 2025-Aug-23 00:00:00.0000, 3.465497258366139E+08, -1.607898363088390E+08, 1.081772389592441E+07,
2460917.500000000, A.D. 2025-Aug-30 00:00:00.0000, 3.494976192885640E+08, -1.499570283533096E+08, 1.237681479592717E+07,
2460924.500000000, A.D. 2025-Sep-06 00:00:00.0000, 3.521375614111703E+08, -1.389921644498904E+08, 1.392499638614465E+07,
2460931.500000000, A.D. 2025-Sep-13 00:00:00.0000, 3.544630863183776E+08, -1.279032697690325E+08, 1.546074037321676E+07,
2460938.500000000, A.D. 2025-Sep-20 00:00:00.0000, 3.564678690532227E+08, -1.166987100805511E+08, 1.698248998243234E+07,
2460945.500000000, A.D. 2025-Sep-27 00:00:00.0000, 3.581457437129023E+08, -1.053871977236912E+08, 1.848866073653766E+07,
2460952.500000000, A.D. 2025-Oct-04 00:00:00.0000, 3.594907224401249E+08, -9.397779575513943E+07, 1.997764150288944E+07,
2460959.500000000, A.D. 2025-Oct-11 00:00:00.0000, 3.604970149085474E+08, -8.247992112123799E+07, 2.144779577801557E+07,
2460966.500000000, A.D. 2025-Oct-18 00:00:00.0000, 3.611590485786633E+08, -7.090334702746125E+07, 2.289746317296723E+07,
2460973.500000000, A.D. 2025-Oct-25 00:00:00.0000, 3.614714898466833E+08, -5.925820438776429E+07, 2.432496109917530E+07,
2460980.500000000, A.D. 2025-Nov-01 00:00:00.0000, 3.614292660986032E+08, -4.755498222702001E+07, 2.572858666369903E+07,
2460987.500000000, A.D. 2025-Nov-08 00:00:00.0000, 3.610275886659665E+08, -3.580452695255678E+07, 2.710661877884774E+07,
2460994.500000000, A.D. 2025-Nov-15 00:00:00.0000, 3.602619767808175E+08, -2.401804043530345E+07, 2.845732047764000E+07,
2461001.500000000, A.D. 2025-Nov-22 00:00:00.0000, 3.591282828666701E+08, -1.220707655989666E+07, 2.977894142435570E+07,
2461008.500000000, A.D. 2025-Nov-29 00:00:00.0000, 3.576227189319442E+08, -3.835349834093153E+05, 3.106972073408121E+07,
2461015.500000000, A.D. 2025-Dec-06 00:00:00.0000, 3.557418817009926E+08, 1.144034788700864E+07, 3.232789030664632E+07,
2461022.500000000, A.D. 2025-Dec-13 00:00:00.0000, 3.534827768150718E+08, 2.325200744500429E+07, 3.355167836576477E+07,
2461029.500000000, A.D. 2025-Dec-20 00:00:00.0000, 3.508428454708224E+08, 3.503856010221940E+07, 3.473931296891769E+07,
2461036.500000000, A.D. 2025-Dec-27 00:00:00.0000, 3.478199922800515E+08, 4.678681587638890E+07, 3.588902579878813E+07,
2461043.500000000, A.D. 2026-Jan-03 00:00:00.0000, 3.444126127357207E+08, 5.848329384053084E+07, 3.699905631880008E+07,
2461050.500000000, A.D. 2026-Jan-10 00:00:00.0000, 3.406196202214002E+08, 7.011423984957120E+07, 3.806765622367118E+07,
2461057.500000000, A.D. 2026-Jan-17 00:00:00.0000, 3.364404726068516E+08, 8.166564653599715E+07, 3.909309414962968E+07,
2461064.500000000, A.D. 2026-Jan-24 00:00:00.0000, 3.318751983011228E+08, 9.312327566605812E+07, 4.007366062930838E+07,
2461071.500000000, A.D. 2026-Jan-31 00:00:00.0000, 3.269244215646157E+08, 1.044726829011960E+08, 4.100767327558810E+07,
2461078.500000000, A.D. 2026-Feb-07 00:00:00.0000, 3.215893869061257E+08, 1.156992449400856E+08, 4.189348216780484E+07,
2461085.500000000, A.D. 2026-Feb-14 00:00:00.0000, 3.158719825712476E+08, 1.267881890357023E+08, 4.272947539613939E+07,
2461092.500000000, A.D. 2026-Feb-21 00:00:00.0000, 3.097747632513224E+08, 1.377246254459801E+08, 4.351408475137033E+07,
2461099.500000000, A.D. 2026-Feb-28 00:00:00.0000, 3.033009706556009E+08, 1.484935839257183E+08, 4.424579172418983E+07,
2461106.500000000, A.D. 2026-Mar-07 00:00:00.0000, 2.964545496160471E+08, 1.590800522400583E+08, 4.492313381260761E+07,
2461113.500000000, A.D. 2026-Mar-14 00:00:00.0000, 2.892401622346285E+08, 1.694690142578348E+08, 4.554471065697037E+07,
2461120.500000000, A.D. 2026-Mar-21 00:00:00.0000, 2.816632015785877E+08, 1.796454903732828E+08, 4.610919003152574E+07,
2461127.500000000, A.D. 2026-Mar-28 00:00:00.0000, 2.737298026355693E+08, 1.895945811081482E+08, 4.661531391244221E+07,
2461134.500000000, A.D. 2026-Apr-04 00:00:00.0000, 2.654468496615062E+08, 1.993015127251640E+08, 4.706190455005361E+07,
2461141.500000000, A.D. 2026-Apr-11 00:00:00.0000, 2.568219799548425E+08, 2.087516842584813E+08, 4.744787044269963E+07,
2461148.500000000, A.D. 2026-Apr-18 00:00:00.0000, 2.478635840028664E+08, 2.179307156844724E+08, 4.777221214850566E+07,
2461155.500000000, A.D. 2026-Apr-25 00:00:00.0000, 2.385808018595487E+08, 2.268244969409976E+08, 4.803402788131136E+07,
2461162.500000000, A.D. 2026-May-02 00:00:00.0000, 2.289835156268673E+08, 2.354192374258427E+08, 4.823251883192764E+07,
2461169.500000000, A.D. 2026-May-09 00:00:00.0000, 2.190823380371884E+08, 2.437015155417050E+08, 4.836699414286688E+07,
2461176.500000000, A.D. 2026-May-16 00:00:00.0000, 2.088885974262500E+08, 2.516583280391043E+08, 4.843687545879008E+07,
2461183.500000000, A.D. 2026-May-23 00:00:00.0000, 1.984143191049553E+08, 2.592771397734313E+08, 4.844170107812022E+07,
2461190.500000000, A.D. 2026-May-30 00:00:00.0000, 1.876722010474134E+08, 2.665459337705559E+08, 4.838112986928774E+07,
2461197.500000000, A.D. 2026-Jun-06 00:00:00.0000, 1.766755836172356E+08, 2.734532579059373E+08, 4.825494466627212E+07,
2461204.500000000, A.D. 2026-Jun-13 00:00:00.0000, 1.654384171031707E+08, 2.799882679826199E+08, 4.806305478425506E+07,
2461211.500000000, A.D. 2026-Jun-20 00:00:00.0000, 1.539752267175657E+08, 2.861407697146189E+08, 4.780549790235013E+07,
2461218.500000000, A.D. 2026-Jun-27 00:00:00.0000, 1.423010735560728E+08, 2.919012588691686E+08, 4.748244140875258E+07,
2461225.500000000, A.D. 2026-Jul-04 00:00:00.0000, 1.304315117653821E+08, 2.972609584107945E+08, 4.709418312036023E+07,
2461232.500000000, A.D. 2026-Jul-11 00:00:00.0000, 1.183825424674164E+08, 3.022118521609882E+08, 4.664115132567310E+07,
2461239.500000000, A.D. 2026-Jul-18 00:00:00.0000, 1.061705648697522E+08, 3.067467146782583E+08, 4.612390413508637E+07,
2461246.500000000, A.D. 2026-Jul-25 00:00:00.0000, 9.381232496129164E+07, 3.108591370795336E+08, 4.554312813505849E+07,
2461253.500000000, A.D. 2026-Aug-01 00:00:00.0000, 8.132486224774221E+07, 3.145435485174446E+08, 4.489963634447569E+07,
2461260.500000000, A.D. 2026-Aug-08 00:00:00.0000, 6.872545517359985E+07, 3.177952330892491E+08, 4.419436546549053E+07,
2461267.500000000, A.D. 2026-Aug-15 00:00:00.0000, 5.603156609628156E+07, 3.206103424934323E+08, 4.342837245089006E+07,
2461274.500000000, A.D. 2026-Aug-22 00:00:00.0000, 4.326078551700712E+07, 3.229859055770267E+08, 4.260283058855477E+07,
2461281.500000000, A.D. 2026-Aug-29 00:00:00.0000, 3.043077375098551E+07, 3.249198333673360E+08, 4.171902523629382E+07,
2461288.500000000, A.D. 2026-Sep-05 00:00:00.0000, 1.755920262680310E+07, 3.264109167385452E+08, 4.077834881956677E+07,
$$EOE